{
  "norad_id": 67931,
  "name": "STARLINK-36781",
  "history": [
    {
      "epoch": "2026-03-28T22:00:01.999584Z",
      "apogee_km": 481.38189410213727,
      "perigee_km": 479.58191815641203,
      "latitude_deg": 25.322882182169504,
      "longitude_deg": 10.448987909207816,
      "height_km": 480.93357707739654,
      "semi_major_axis_km": 6858.618906129274,
      "eccentricity": 0.00013122,
      "inclination_deg": 43.0001,
      "raan_deg": 136.4812,
      "arg_perigee_deg": 270.8754,
      "mean_anomaly_deg": 127.7992,
      "mean_motion_rev_day": 15.28437743
    },
    {
      "epoch": "2026-03-29T04:06:21.323232Z",
      "apogee_km": 480.8836527163767,
      "perigee_km": 479.9838082365377,
      "latitude_deg": 5.3464723632776844e-05,
      "longitude_deg": -113.1253949012531,
      "height_km": 480.0929492936607,
      "semi_major_axis_km": 6858.570730476456,
      "eccentricity": 6.56e-05,
      "inclination_deg": 42.9963,
      "raan_deg": 135.0444,
      "arg_perigee_deg": 284.983,
      "mean_anomaly_deg": 75.095,
      "mean_motion_rev_day": 15.28453847
    },
    {
      "epoch": "2026-03-30T03:37:55.456320Z",
      "apogee_km": 481.28573631423023,
      "perigee_km": 479.81674246711736,
      "latitude_deg": 2.01364270349879e-05,
      "longitude_deg": -112.52793562393401,
      "height_km": 480.68422405706406,
      "semi_major_axis_km": 6858.6882393906735,
      "eccentricity": 0.00010709,
      "inclination_deg": 42.9986,
      "raan_deg": 129.5003,
      "arg_perigee_deg": 240.9213,
      "mean_anomaly_deg": 119.1532,
      "mean_motion_rev_day": 15.28414567
    },
    {
      "epoch": "2026-03-30T11:28:27.255936Z",
      "apogee_km": 481.5259330685203,
      "perigee_km": 479.64033372944596,
      "latitude_deg": -1.4295347421393992e-05,
      "longitude_deg": 127.66836329621876,
      "height_km": 480.6332764449125,
      "semi_major_axis_km": 6858.720133398983,
      "eccentricity": 0.00013746,
      "inclination_deg": 42.9991,
      "raan_deg": 127.6512,
      "arg_perigee_deg": 253.1218,
      "mean_anomaly_deg": 106.9483,
      "mean_motion_rev_day": 15.28403906
    },
    {
      "epoch": "2026-03-30T19:18:59.091840Z",
      "apogee_km": 481.2666341375234,
      "perigee_km": 479.8669098717319,
      "latitude_deg": 1.1424916336844283e-05,
      "longitude_deg": 7.866874753018381,
      "height_km": 480.49603406649067,
      "semi_major_axis_km": 6858.703772004627,
      "eccentricity": 0.00010204,
      "inclination_deg": 43.0,
      "raan_deg": 125.8044,
      "arg_perigee_deg": 257.3714,
      "mean_anomaly_deg": 102.7024,
      "mean_motion_rev_day": 15.28409375
    },
    {
      "epoch": "2026-03-31T11:00:02.009376Z",
      "apogee_km": 481.4410064423546,
      "perigee_km": 479.60329730919966,
      "latitude_deg": 6.330120074947547e-05,
      "longitude_deg": 128.26394964267237,
      "height_km": 480.52221847886454,
      "semi_major_axis_km": 6858.659151875777,
      "eccentricity": 0.00013397,
      "inclination_deg": 43.0026,
      "raan_deg": 122.1077,
      "arg_perigee_deg": 255.9364,
      "mean_anomaly_deg": 104.134,
      "mean_motion_rev_day": 15.2842429
    },
    {
      "epoch": "2026-04-01T18:22:08.635872Z",
      "apogee_km": 480.798031618594,
      "perigee_km": 480.1656669606882,
      "latitude_deg": 3.974531876011193e-05,
      "longitude_deg": 9.057757008592061,
      "height_km": 480.0619280475245,
      "semi_major_axis_km": 6858.618849289641,
      "eccentricity": 4.61e-05,
      "inclination_deg": 43.0016,
      "raan_deg": 114.7174,
      "arg_perigee_deg": 308.2637,
      "mean_anomaly_deg": 51.8174,
      "mean_motion_rev_day": 15.28437762
    },
    {
      "epoch": "2026-04-02T17:53:42.509760Z",
      "apogee_km": 480.7841526068478,
      "perigee_km": 480.1790852722852,
      "latitude_deg": -3.61941427678221e-05,
      "longitude_deg": 9.655354025223769,
      "height_km": 480.10223412658803,
      "semi_major_axis_km": 6858.618618939567,
      "eccentricity": 4.411e-05,
      "inclination_deg": 43.0016,
      "raan_deg": 109.1724,
      "arg_perigee_deg": 300.8836,
      "mean_anomaly_deg": 59.1972,
      "mean_motion_rev_day": 15.28437839
    },
    {
      "epoch": "2026-04-03T17:25:16.178016Z",
      "apogee_km": 481.7693045725682,
      "perigee_km": 479.1273774992005,
      "latitude_deg": -2.5108329552901096e-05,
      "longitude_deg": 10.256202303017467,
      "height_km": 479.8911563958822,
      "semi_major_axis_km": 6858.585341035884,
      "eccentricity": 0.0001926,
      "inclination_deg": 43.0016,
      "raan_deg": 103.6297,
      "arg_perigee_deg": 284.6638,
      "mean_anomaly_deg": 75.4,
      "mean_motion_rev_day": 15.28448963
    }
  ]
}